COSMOS 2545 [GLONASS-M] 
1 45358U 20018A   26135.84549925 -.00000029  00000+0  00000+0 0  9999
2 45358  64.3753 313.5554 0007490 233.4064 126.5264  2.13102449 47972
STARLINK-1279           
1 45360U 20019A   26136.21936614  .00065045  00000+0  50127-3 0  9997
2 45360  53.0352 127.4517 0009456  34.8892 325.2743 15.71329988341246
STARLINK-1301           
1 45361U 20019B   26136.23017718  .00079910  00000+0  55867-3 0  9997
2 45361  53.0373 130.4171 0006934  51.2665 308.8972 15.73570470341213
STARLINK-1262           
1 45366U 20019G   26135.49222555  .00023160  00000+0  74601-3 0  9999
2 45366  53.1551 214.8346 0002949   2.2772 357.8243 15.32115852339985
STARLINK-1273           
1 45367U 20019H   26136.13952649  .00056016  00000+0  85137-3 0  9998
2 45367  53.0452 191.4862 0005865 340.7699  19.3088 15.54020384340355
STARLINK-1277           
1 45369U 20019K   26135.86758087  .00070615  00000+0  84922-3 0  9991
2 45369  53.0439 187.9273 0006793 331.3182  28.7456 15.60202050340387
STARLINK-1281           
1 45370U 20019L   26135.64820492  .00015032  00000+0  47489-3 0  9998
2 45370  53.1572 213.8794 0004042   0.6220 359.4786 15.33042835340012
STARLINK-1300           
1 45374U 20019Q   26135.92748634  .00045709  00000+0  14008-2 0  9994
2 45374  53.1595 212.5481 0004070  11.4034 348.7059 15.33357914340059
STARLINK-1302           
1 45375U 20019R   26135.85753110  .00025377  00000+0  25296-3 0  9993
2 45375  53.0460 184.7092 0004779 357.2668   2.8847 15.65004627340427
STARLINK-1304           
1 45376U 20019S   26135.65852452  .00040645  00000+0  50660-3 0  9999
2 45376  53.0433 186.1772 0006018 355.0738   5.0213 15.59505167340386
STARLINK-1305           
1 45377U 20019T   26136.24493904  .00042124  00000+0  41736-3 0  9997
2 45377  53.0366 163.2459 0010571   2.6294 357.4774 15.65354453340766
STARLINK-1319           
1 45379U 20019V   26136.29758499  .00065445  00000+0  45780-3 0  9991
2 45379  53.0394 155.6616 0005294  20.8991 339.2243 15.73650404340876
STARLINK-1266           
1 45383U 20019Z   26135.81161236  .00060134  00000+0  85626-3 0  9993
2 45383  53.0444 170.4778 0005608 346.3740  13.7119 15.55773737340611
STARLINK-1267           
1 45384U 20019AA  26136.25633194  .00094979  00000+0  10665-2 0  9994
2 45384  53.0451 159.8595 0007689  29.5124 330.6322 15.61851270340809
STARLINK-1272           
1 45386U 20019AC  26136.21639770  .00085355  00000+0  77943-3 0  9999
2 45386  53.0386 139.6123 0008360  20.6496 339.4855 15.67114861341085
STARLINK-1274           
1 45387U 20019AD  26136.24539420  .00076144  00000+0  10028-2 0  9990
2 45387  53.0209 137.2930 0009563  43.5087 316.6677 15.57741554341113
STARLINK-1280           
1 45388U 20019AE  26136.31815472  .00072697  00000+0  49212-3 0  9990
2 45388  53.0365 148.0506 0005998  28.3062 331.8281 15.74366192340960
STARLINK-1283           
1 45389U 20019AF  26136.25262893  .00051370  00000+0  45132-3 0  9999
2 45389  53.0385 138.7299 0004555  45.5869 314.5518 15.68305168341109
STARLINK-1284           
1 45390U 20019AG  26136.25442461  .00044694  00000+0  40906-3 0  9997
2 45390  53.0394 162.4216 0004959 336.9145  23.1646 15.67357283340766
STARLINK-1297           
1 45395U 20019AM  26136.30977951  .00043515  00000+0  42385-3 0  9999
2 45395  53.0407 160.9151 0006739 345.6198  14.4624 15.65808556339972
STARLINK-1307           
1 45397U 20019AP  26135.49477684  .00020785  00000+0  31066-3 0  9996
2 45397  53.0518 168.8967 0002250  29.8189 330.2949 15.55009831340434
STARLINK-1255           
1 45399U 20019AR  26136.23847752  .00091951  00000+0  99978-3 0  9997
2 45399  53.0346 134.6312 0006752  31.8251 328.3169 15.62702580340963
STARLINK-1260           
1 45404U 20019AW  26136.25292562  .00042276  00000+0  12053-2 0  9993
2 45404  53.1552 174.2093 0005612   9.4200 350.6908 15.35666624340333
STARLINK-1263           
1 45405U 20019AX  26136.24943354  .00037759  00000+0  11677-2 0  9996
2 45405  53.1561 175.0567 0004155  28.4231 331.6997 15.33157307340322
STARLINK-1265           
1 45406U 20019AY  26136.25091280  .00036104  00000+0  10208-2 0  9992
2 45406  53.1552 174.2682 0005316   1.5029 358.5989 15.36003352340332
STARLINK-1278           
1 45408U 20019BA  26136.22145861  .00048134  00000+0  45344-3 0  9992
2 45408  53.0389 160.4335 0006908   6.3385 353.7717 15.66595670340517
STARLINK-1296           
1 45412U 20019BE  26135.38283204  .00021632  00000+0  61434-3 0  9999
2 45412  53.1563 178.0634 0006048 357.6442   2.4532 15.36140855340202
STARLINK-1309           
1 45414U 20019BG  26136.22960253  .00040622  00000+0  39445-3 0  9998
2 45414  53.0598 154.1433 0006930 344.9006  15.1801 15.65915852340588
STARLINK-1316           
1 45415U 20019BH  26136.13729563  .00035392  00000+0  98580-3 0  9999
2 45415  53.1554 174.5120 0006393   1.7594 358.3431 15.36473901340341
STARLINK-1286           
1 45417U 20019BK  26135.31605761  .00026459  00000+0  37546-3 0  9992
2 45417  53.0453 169.2635 0003670 345.4937  14.5968 15.56269135340582
STARLINK-1308           
1 45419U 20019BM  26135.44672965  .00060444  00000+0  65940-3 0  9999
2 45419  53.0468 188.4860 0008215 328.3137  31.7381 15.62781130340070
ONEWEB-0066             
1 45424U 20020A   26136.17833882 -.00000405  00000+0 -11772-2 0  9991
2 45424  87.8918  27.4375 0001971  76.7316 283.4032 13.11414755298483
ONEWEB-0067             
1 45425U 20020B   26136.21639133  .00000537  00000+0  14791-2 0  9998
2 45425  87.8937  27.3465 0002010  85.6853 274.4505 13.11423485298546
ONEWEB-0080             
1 45426U 20020C   26136.21579147  .00000521  00000+0  14330-2 0  9999
2 45426  87.8929  27.4239 0001613  72.5157 287.6147 13.11419225298510
ONEWEB-0090             
1 45427U 20020D   26136.24460498 -.00000061  00000+0 -20726-3 0  9999
2 45427  87.8924  27.4231 0001779  78.9807 281.1521 13.11413812298480
ONEWEB-0061             
1 45428U 20020E   26136.20023926 -.00000392  00000+0 -11417-2 0  9990
2 45428  87.8924  27.4173 0001860  79.5978 280.5359 13.11418167298438
ONEWEB-0081             
1 45429U 20020F   26136.18173112 -.00000390  00000+0 -11369-2 0  9995
2 45429  87.8923  27.4324 0002013  80.0692 280.0663 13.11415457298541
ONEWEB-0069             
1 45430U 20020G   26136.17939463 -.00000455  00000+0 -13298-2 0  9990
2 45430  87.8927  27.4320 0002052  78.5513 281.5845 13.10857204298479
ONEWEB-0031             
1 45431U 20020H   26136.21904084  .00000628  00000+0  17357-2 0  9997
2 45431  87.8914  27.4349 0001692  76.4819 283.6498 13.11416860298468
ONEWEB-0027             
1 45432U 20020J   26136.18490115 -.00004876  00000+0 -12606-1 0  9991
2 45432  87.9172  12.2107 0001530  93.2642 266.8665 13.17613245302144
ONEWEB-0064             
1 45433U 20020K   26136.14107699 -.00001569  00000+0 -44651-2 0  9992
2 45433  87.8917  27.4410 0001538  80.5039 279.6263 13.11399216298483
ONEWEB-0018             
1 45434U 20020L   26136.17325663 -.00000251  00000+0 -74430-3 0  9995
2 45434  87.8913  27.4341 0002003  70.0152 290.1191 13.11414289298432
ONEWEB-0083             
1 45435U 20020M   26136.16322734  .00000160  00000+0  41439-3 0  9991
2 45435  87.8919  27.4278 0001800  78.1640 281.9690 13.11414947298470
ONEWEB-0095             
1 45436U 20020N   26136.23105299  .00000479  00000+0  13164-2 0  9991
2 45436  87.8923  27.4227 0001743 106.3043 253.8277 13.11414024298483
ONEWEB-0092             
1 45437U 20020P   26136.19609494 -.00000238  00000+0 -70227-3 0  9992
2 45437  87.8922  27.4261 0001876  89.5262 270.6081 13.11954799298593
ONEWEB-0085             
1 45438U 20020Q   26136.23925906  .00000260  00000+0  69684-3 0  9995
2 45438  87.8912  27.4221 0001829  80.1413 279.9921 13.11415549298480
ONEWEB-0096             
1 45439U 20020R   26136.24108446  .00000124  00000+0  31432-3 0  9998
2 45439  87.8923  27.4147 0001895  80.8402 279.2941 13.11411866298470
ONEWEB-0037             
1 45440U 20020S   26136.13387128  .00000251  00000+0  66844-3 0  9990
2 45440  87.8936  27.4118 0001820  83.5356 276.5980 13.11911558298498
ONEWEB-0042             
1 45441U 20020T   26136.23077447  .00000539  00000+0  14845-2 0  9994
2 45441  87.8922  27.4134 0001926  80.6794 279.4552 13.11415014298474
ONEWEB-0098             
1 45442U 20020U   26136.22667384  .00000548  00000+0  15105-2 0  9999
2 45442  87.8920  27.4242 0001786  78.8664 281.2665 13.11416701298450
ONEWEB-0055             
1 45443U 20020V   26136.20530658  .00000058  00000+0  12722-3 0  9990
2 45443  87.8924  27.4265 0001805  78.8944 281.2387 13.11415627298427
ONEWEB-0093             
1 45444U 20020W   26136.18526870 -.00000445  00000+0 -12925-2 0  9995
2 45444  87.8923  27.4228 0002230  81.2669 278.8711 13.11416563298480
ONEWEB-0029             
1 45445U 20020X   26136.20760856  .00000186  00000+0  49363-3 0  9990
2 45445  87.8913  27.4291 0002008  79.9870 280.1484 13.10890098298460
ONEWEB-0068             
1 45446U 20020Y   26136.18498115 -.00000758  00000+0 -21743-2 0  9992
2 45446  87.8932  27.4259 0002035  77.6823 282.4533 13.11416641298402
ONEWEB-0046             
1 45447U 20020Z   26136.17664230 -.00000346  00000+0 -10118-2 0  9992
2 45447  87.8924  27.4354 0002031  84.6133 275.5227 13.11414152298417
ONEWEB-0063             
1 45448U 20020AA  26136.20560069  .00000057  00000+0  12402-3 0  9998
2 45448  87.8926  27.4273 0001865  90.5120 269.6222 13.11417033298506
ONEWEB-0019             
1 45449U 20020AB  26136.24432719  .00000003  00000+0 -28684-4 0  9995
2 45449  87.8916  27.4083 0001695  77.2790 282.8527 13.11413907298355
ONEWEB-0094             
1 45450U 20020AC  26136.15787003  .00000052  00000+0  99591-4 0  9994
2 45450  87.9172  12.2144 0001877  75.2193 284.9147 13.17648993302098
ONEWEB-0087             
1 45451U 20020AD  26136.13920854  .00000473  00000+0  12982-2 0  9990
2 45451  87.8934  27.4121 0002104  75.9194 284.2168 13.11420419298386
